[{"OBJECT_NAME":"DMSP 5D-3 F17 (USA 191)","OBJECT_ID":"2006-050A","EPOCH":"2026-03-09T23:03:38.328192","MEAN_MOTION":14.14964226,"ECCENTRICITY":0.00097378,"INCLINATION":98.7414,"RA_OF_ASC_NODE":77.5505,"ARG_OF_PERICENTER":346.0855,"MEAN_ANOMALY":14.0049,"EPHEMERIS_TYPE":0,"CLASSIFICATION_TYPE":"U","NORAD_CAT_ID":29522,"ELEMENT_SET_NO":999,"REV_AT_EPOCH":99838,"BSTAR":0.00013823523,"MEAN_MOTION_DOT":2.24e-6,"MEAN_MOTION_DDOT":0},{"OBJECT_NAME":"FENGYUN 1C DEB","OBJECT_ID":"1999-025EXC","EPOCH":"2026-02-18T04:34:49.474560","MEAN_MOTION":13.96786653,"ECCENTRICITY":0.00798703,"INCLINATION":98.964,"RA_OF_ASC_NODE":39.2064,"ARG_OF_PERICENTER":170.4437,"MEAN_ANOMALY":189.8268,"EPHEMERIS_TYPE":0,"CLASSIFICATION_TYPE":"U","NORAD_CAT_ID":40696,"ELEMENT_SET_NO":999,"REV_AT_EPOCH":56621,"BSTAR":0.00029567605,"MEAN_MOTION_DOT":3.79e-6,"MEAN_MOTION_DDOT":0}]
